1 07646U 75010A   20006.77496763 -.00000142  00000-0 -91652-6 0  9991
2 07646  49.8256  33.5493 0205785 208.7556 150.1865 13.82306937269001
1 08820U 76039A   20006.81896550 -.00000001  00000-0  00000-0 0  9995
2 08820 109.8516  93.2402 0044106  85.4868 266.7180  6.38664966763150
1 16908U 86061A   20007.51169774 -.00000105  00000-0 -54992-4 0  9995
2 16908  50.0072 181.6346 0011176 312.8648  92.5760 12.44491287187789
1 22195U 92070B   20006.90230153 -.00000009  00000-0  00000-0 0  9998
2 22195  52.6685 313.9133 0138195 238.1200  22.2765  6.47293682643283
1 22824U 93061B   20006.92346823 -.00000031  00000-0  62834-5 0  9995
2 22824  98.9466 353.8252 0005809 210.2281 247.2405 14.27379275369052
1 38077U 12006A   20007.32049443 -.00000041  00000-0 -12817-4 0  9992
2 38077  69.4948 351.1479 0006799 111.9085 248.2681 12.54930879361978
